IRIDIUM 26              
1 24903U 97043A   25152.38083637  .00000519  00000+0  16813-3 0  9990
2 24903  86.3943 117.2625 0002427  90.8375 269.3101 14.37133475454478
IRIDIUM 22              
1 24907U 97043E   25152.43697471  .00000454  00000+0  14986-3 0  9994
2 24907  86.3948 120.7644 0002366  87.1421 273.0046 14.35948028454511
DUMMY MASS 1            
1 24925U 97048A   25152.46828882  .00000505  00000+0  53242-4 0  9990
2 24925  86.3341 142.5968 0006163 180.8300 179.2916 14.86974463502790
DUMMY MASS 2            
1 24926U 97048B   25152.49511835  .00000783  00000+0  84893-4 0  9995
2 24926  86.3343 144.1883 0006397 195.5373 164.5657 14.86728771502573
IRIDIUM 29              
1 24944U 97051A   25152.53513088  .00000968  00000+0  32365-3 0  9997
2 24944  86.3959 150.4614 0002222  84.6474 275.4977 14.36458335451022
IRIDIUM 33              
1 24946U 97051C   25152.49979790  .00000623  00000+0  21226-3 0  9992
2 24946  86.3874 149.7350 0009692 121.0626 239.1523 14.34885616450499
IRIDIUM 28              
1 24948U 97051E   25152.51890979  .00000794  00000+0  25937-3 0  9990
2 24948  86.3963 147.9941 0002660  96.9178 263.2323 14.37378562451594
IRIDIUM 36              
1 24967U 97056C   25152.55428869  .00000882  00000+0  28759-3 0  9998
2 24967  86.3992 179.5608 0002582  89.1350 271.0143 14.37601157449972
